satname,norad_id,inclination_deg,eccentricity,mean_motion_rev_per_day,perigee_km,apogee_km,l1,l2
STARLINK-1316,45415,53.1561,0.0005623,15.3901922,445.169391887227,452.8471994867559,1 45415U 20019BH  26161.42199101  .00045800  00000+0  11704-2 0  9995,2 45415  53.1561  55.7220 0005623  90.7758 269.3891 15.39019220344231
STARLINK-1286,45417,53.0463,0.0001507,15.64345423,374.1042536173836,376.1396858708649,1 45417U 20019BK  26160.97442827  .00056738  00000+0  58357-3 0  9990,2 45417  53.0463  43.9081 0001507 208.4009 151.6923 15.64345423344594
STARLINK-1308,45419,53.0466,0.0007417,15.66026225,365.2836556078364,375.29427068156565,1 45419U 20019BM  26160.99871727  .00048879  00000+0  47089-3 0  9996,2 45419  53.0466  63.1674 0007417  55.1153 305.0558 15.66026225344074
STARLINK-1329,45531,53.0433,0.0002526,15.735863,346.9578522524016,350.35622860162675,1 45531U 20025A   26161.23368113  .00071967  00000+0  50427-3 0  9990,2 45531  53.0433 345.5991 0002526 159.3789 200.7331 15.73586300339965
STARLINK-1338,45532,53.0448,0.0002728,15.68075433,362.5689518671161,366.2476845927431,1 45532U 20025B   26160.82084190  .00053605  00000+0  47518-3 0  9991,2 45532  53.0448 354.3732 0002728 107.6759 252.4554 15.68075433339808
STARLINK-1350,45535,53.0733,0.0001353,15.38265227,450.3150188002801,452.16304795491124,1 45535U 20025E   26160.72186923  .00008538  00000+0  23314-3 0  9993,2 45535  53.0733 320.1840 0001353  87.9562 272.1596 15.38265227340316
STARLINK-1362,45538,53.1574,0.0003417,15.37509689,451.14180854171354,455.8105329826112,1 45538U 20025H   26161.33638138 -.00177694  00000+0 -48597-2 0  9995,2 45538  53.1574  28.5200 0003417 178.9970 181.1042 15.37509689339392
STARLINK-1368,45540,53.1585,0.0003806,15.37665605,450.4144194527207,455.6142918646483,1 45540U 20025K   26161.34935579  .00045013  00000+0  12027-2 0  9994,2 45540  53.1585  28.8216 0003806 141.6641 218.4635 15.37665605339383
STARLINK-1371,45542,53.0454,0.0004195,15.62603229,377.3055495819881,382.9757445278683,1 45542U 20025M   26160.86339080  .00087278  00000+0  95409-3 0  9992,2 45542  53.0454   3.9294 0004195 153.6567 206.4660 15.62603229339670
STARLINK-1372,45543,53.1571,0.0002815,15.3811744,449.7538920184552,453.5990770102371,1 45543U 20025N   26160.91733082  .00041611  00000+0  10970-2 0  9999,2 45543  53.1571  30.3409 0002815 124.7352 235.3918 15.38117440338429
STARLINK-1373,45544,53.0457,0.0002485,15.70013743,357.18355117455667,360.5318375376519,1 45544U 20025P   26160.83702539  .00060119  00000+0  49118-3 0  9995,2 45544  53.0457 359.5080 0002485  84.2163 275.9136 15.70013743339730
STARLINK-1327,45555,53.0423,0.0003747,15.67449066,363.6773491091153,368.7315585946317,1 45555U 20025AA  26161.20140904  .00050897  00000+0  46316-3 0  9990,2 45555  53.0423 334.9126 0003747  79.5735 280.5702 15.67449066340108
STARLINK-1356,45564,53.0434,4.08e-05,15.65375197,371.88450175271555,372.4353259808868,1 45564U 20025AK  26161.22620367  .00044616  00000+0  44236-3 0  9999,2 45564  53.0434 347.9817 0000408 334.0102  26.0892 15.65375197339921
STARLINK-1357,45565,53.045,0.0004379,15.69806256,356.5009267435689,362.40170659130763,1 45565U 20025AL  26161.63450150  .00052184  00000+0  43095-3 0  9997,2 45565  53.0450 302.6197 0004379 124.1044 236.0389 15.69806256340603
STARLINK-1361,45567,53.0431,0.0002189,15.63167933,377.03387221804314,379.99193354552426,1 45567U 20025AN  26161.60907712  .00084328  00000+0  90249-3 0  9995,2 45567  53.0431 344.4454 0002189 281.8204  78.2564 15.63167933340012
STARLINK-1376,45570,53.1591,0.0003659,15.38496581,448.0557454747459,453.0529818146615,1 45570U 20025AR  26161.28355596  .00048928  00000+0  12710-2 0  9992,2 45570  53.1591   5.0180 0003659 119.7437 240.3932 15.38496581339712
STARLINK-1320,45572,53.0408,0.0009159,15.87619604,302.83400221667034,315.08342414407434,1 45572U 20025AT  26161.66670139  .00229221  00000+0  82037-3 0  9996,2 45572  53.0408 241.1176 0009159 345.5287 148.4596 15.87619604  6038
STARLINK-1321,45573,53.0414,0.0001483,15.6423858,374.4279265705982,376.4310343887091,1 45573U 20025AU  26161.66670139  .00074760  00000+0  76871-3 0  9992,2 45573  53.0414 328.0393 0001483 196.7723  85.3175 15.64238580  5974
STARLINK-1331,45578,53.0459,0.000165,15.63906156,375.27197590917785,377.5009686550311,1 45578U 20025AZ  26161.64065443  .00088455  00000+0  91893-3 0  9998,2 45578  53.0459 335.0762 0001650 117.8511 242.2670 15.63906156340157
STARLINK-1333,45580,53.1568,0.000191,15.35483048,458.18009956832884,460.79207158701956,1 45580U 20025BB  26161.27077652  .00047742  00000+0  13672-2 0  9997,2 45580  53.1568   6.6374 0001910 152.1853 207.9252 15.35483048339692
STARLINK-1335,45581,53.1562,0.0004176,15.37181221,451.59604335686527,457.3026194608574,1 45581U 20025BC  26160.84285204  .00052847  00000+0  14309-2 0  9994,2 45581  53.1562   5.3445 0004176 138.7592 221.3728 15.37181221339664
STARLINK-1337,45582,53.045,0.0003619,15.74903701,342.4721563818748,347.3382943445922,1 45582U 20025BD  26161.60942697  .00068064  00000+0  45096-3 0  9992,2 45582  53.0450 324.3661 0003619 104.4202 255.7218 15.74903701340284
STARLINK-1347,45586,53.0387,0.0001497,15.68894926,361.05118242514254,363.0691974638112,1 45586U 20025BH  26161.60955833  .00051373  00000+0  44075-3 0  9993,2 45586  53.0387 294.9633 0001497 131.6134 228.5011 15.68894926340691
STARLINK-1364,45589,53.0438,2.53e-05,15.69559712,359.9863726301319,360.32733029901556,1 45589U 20025BL  26160.78811294  .00057889  00000+0  48228-3 0  9998,2 45589  53.0438 335.7082 0000253 295.7920  64.3070 15.69559712340050
STARLINK-1365,45590,53.0476,0.0002184,15.59480377,387.68194002708697,390.6378953207268,1 45590U 20025BM  26160.85958103  .00093610  00000+0  11527-2 0  9992,2 45590  53.0476   9.6493 0002184 112.6812 247.4431 15.59480377339602
STARLINK-1443,45660,53.1364,0.0002283,15.32762318,466.0122335859287,469.13798573519944,1 45660U 20035D   26161.53188579  .00038509  00000+0  12056-2 0  9993,2 45660  53.1364 354.1801 0002283  97.4499 262.6763 15.32762318332967
STARLINK-1446,45663,53.0223,0.0001599,15.47810621,422.04459509113167,424.2196409550761,1 45663U 20035G   26161.56506876  .00029346  00000+0  56224-3 0  9998,2 45663  53.0223 276.6916 0001599 206.1734 153.9192 15.47810621334033
STARLINK-1448,45665,53.0439,0.0004172,15.6856429,360.1949239270234,365.8197347554251,1 45665U 20035J   26161.64552672  .00054830  00000+0  47615-3 0  9994,2 45665  53.0439 318.8546 0004172 101.2489 258.8996 15.68564290333446
STARLINK-1451,45668,53.0536,0.0001908,15.14338775,521.6699785596456,524.3034473685129,1 45668U 20035M   26160.87472546  .00026423  00000+0  14360-2 0  9999,2 45668  53.0536   8.4353 0001908 116.7278 243.3910 15.14338775332695
STARLINK-1452,45669,53.0255,0.0004355,15.59427747,386.36495489466415,392.2594031295839,1 45669U 20035N   26161.60721631  .00085488  00000+0  10561-2 0  9999,2 45669  53.0255 294.3403 0004355 321.4039  38.6661 15.59427747333792
STARLINK-1453,45670,53.039,0.0001256,15.69192794,360.3607408883581,362.05366415203116,1 45670U 20035P   26161.61240391  .00102993  00000+0  86256-3 0  9997,2 45670  53.0390 279.2948 0001256 297.2794  62.8094 15.69192794333897
STARLINK-1454,45671,53.0435,0.0002,15.67004229,366.13164707968645,368.8298941879402,1 45671U 20035Q   26161.58912155  .00050019  00000+0  46365-3 0  9996,2 45671  53.0435 320.3902 0002000  39.8902 320.2260 15.67004229333412
STARLINK-1456,45673,53.0432,0.0003541,15.65885303,368.3040795715715,373.0836015728655,1 45673U 20035S   26161.62254158  .00046213  00000+0  44860-3 0  9994,2 45673  53.0432 314.8293 0003541 167.9395 192.1706 15.65885303333512
STARLINK-1458,45675,53.0467,0.0001049,15.57569886,393.98209130184205,395.40303094376486,1 45675U 20035U   26161.40453134  .00096443  00000+0  12756-2 0  9995,2 45675  53.0467 330.6604 0001049  48.9637 311.1465 15.57569886333232
STARLINK-1460,45676,53.1589,0.0002413,15.35307939,458.35594023643534,461.656028040582,1 45676U 20035V   26161.24668997  .00043951  00000+0  12672-2 0  9996,2 45676  53.1589 353.9444 0002413 175.1852 184.9175 15.35307939332909
STARLINK-1392,45677,53.1555,0.0001963,15.38602031,448.9019406547159,451.58276238812323,1 45677U 20035W   26161.25949650  .00050842  00000+0  13156-2 0  9991,2 45677  53.1555 352.4632 0001963 191.1885 168.9076 15.38602031332961
STARLINK-1394,45679,53.0409,0.0003812,15.65547623,369.0912385424863,374.23728702523294,1 45679U 20035Y   26161.62618502  .00043815  00000+0  43148-3 0  9990,2 45679  53.0409 305.1008 0003812 182.3230 177.7768 15.65547623333640
STARLINK-1402,45685,53.0421,0.0004193,15.58124125,390.2471869940773,395.92553490456885,1 45685U 20035AE  26161.64636307  .00073439  00000+0  95543-3 0  9993,2 45685  53.0421 295.9760 0004193 206.9906 153.0888 15.58124125333783
STARLINK-1404,45686,53.1574,0.0003032,15.44975627,429.3850216368419,433.5143550046396,1 45686U 20035AF  26161.63153195  .00055416  00000+0  11583-2 0  9998,2 45686  53.1574 332.2304 0003032 202.9381 157.1491 15.44975627333283
STARLINK-1413,45689,53.1593,0.000151,15.35239416,459.1768654912448,461.2420461208985,1 45689U 20035AJ  26161.22059991  .00044556  00000+0  12872-2 0  9990,2 45689  53.1593 338.7134 0001510 205.1215 154.9714 15.35239416333078
STARLINK-1417,45693,53.0521,0.0004734,15.16980905,511.708049636296,518.2344445246308,1 45693U 20035AN  26161.23372785  .00025481  00000+0  12856-2 0  9993,2 45693  53.0521 353.4226 0004734 143.9905 216.1408 15.16980905332924
STARLINK-1420,45695,53.0448,0.0002892,15.68520308,361.183769805064,365.0829205727214,1 45695U 20035AQ  26161.63489595  .00053125  00000+0  46252-3 0  9991,2 45695  53.0448 288.1777 0002892 131.2555 228.8710 15.68520308333889
STARLINK-1422,45696,53.1578,0.0001727,15.35188323,459.1801721811016,461.54218945275625,1 45696U 20035AR  26161.22397903  .00048051  00000+0  13889-2 0  9999,2 45696  53.1578 338.6514 0001727 176.7871 183.3143 15.35188323333152
